{
  "type": "FeatureCollection",
  "features": [
    {
      "type": "Feature",
      "properties": {
        "norad_id": 66662,
        "name": "2025-274N",
        "group": "last-30-days",
        "lat": 40.447313558708515,
        "lon": -93.01840566675986,
        "alt_km": 589.4997038914835,
        "timestamp": "2025-12-12T09:49:07.482430+00:00",
        "meta_object_name": "2025-274N",
        "meta_object_id": "2025-274N",
        "meta_epoch": "2025-12-11T15:56:39.675840",
        "meta_mean_motion": 14.93139159,
        "meta_eccentricity": 0.00138877,
        "meta_inclination": 97.7384,
        "meta_ra_of_asc_node": 272.9058,
        "meta_arg_of_pericenter": 285.6575,
        "meta_mean_anomaly": 74.3112,
        "meta_ephemeris_type": 0,
        "meta_classification_type": "U",
        "meta_norad_cat_id": 66662,
        "meta_element_set_no": 999,
        "meta_rev_at_epoch": 224,
        "meta_bstar": 0.00042305172,
        "meta_mean_motion_dot": 4.364e-05,
        "meta_mean_motion_ddot": 0,
        "tle_line1": "1 66662U 25274N   25345.66434810  .00004364  00000+0  42305-3 0  9990",
        "tle_line2": "2 66662  97.7384 272.9058 0013887 285.6575  74.3112 14.93139159  2245"
      },
      "geometry": {
        "type": "Point",
        "coordinates": [
          -93.01840566675986,
          40.447313558708515
        ]
      }
    },
    {
      "type": "Feature",
      "properties": {
        "norad_id": 66663,
        "name": "KSLV-II R/B",
        "group": "last-30-days",
        "lat": -78.85992161092122,
        "lon": -42.55561715885722,
        "alt_km": 556.2361309557082,
        "timestamp": "2025-12-12T09:49:07.482440+00:00",
        "meta_object_name": "KSLV-II R/B",
        "meta_object_id": "2025-274P",
        "meta_epoch": "2025-12-11T19:44:45.556800",
        "meta_mean_motion": 14.97283545,
        "meta_eccentricity": 0.0051472,
        "meta_inclination": 97.7408,
        "meta_ra_of_asc_node": 273.1734,
        "meta_arg_of_pericenter": 322.7433,
        "meta_mean_anomaly": 37.0222,
        "meta_ephemeris_type": 0,
        "meta_classification_type": "U",
        "meta_norad_cat_id": 66663,
        "meta_element_set_no": 999,
        "meta_rev_at_epoch": 227,
        "meta_bstar": 0.0006844,
        "meta_mean_motion_dot": 8.093e-05,
        "meta_mean_motion_ddot": 0,
        "tle_line1": "1 66663U 25274P   25345.82274950  .00008093  00000+0  68440-3 0  9997",
        "tle_line2": "2 66663  97.7408 273.1734 0051472 322.7433  37.0222 14.97283545  2279"
      },
      "geometry": {
        "type": "Point",
        "coordinates": [
          -42.55561715885722,
          -78.85992161092122
        ]
      }
    },
    {
      "type": "Feature",
      "properties": {
        "norad_id": 66664,
        "name": "SOYUZ-MS 28",
        "group": "last-30-days",
        "lat": -13.0105325902729,
        "lon": 133.56699135429747,
        "alt_km": 420.8950217307629,
        "timestamp": "2025-12-12T09:49:07.482453+00:00",
        "meta_object_name": "SOYUZ-MS 28",
        "meta_object_id": "2025-275A",
        "meta_epoch": "2025-12-11T21:30:28.324224",
        "meta_mean_motion": 15.49521399,
        "meta_eccentricity": 0.0003298,
        "meta_inclination": 51.6307,
        "meta_ra_of_asc_node": 146.6565,
        "meta_arg_of_pericenter": 237.1442,
        "meta_mean_anomaly": 122.9229,
        "meta_ephemeris_type": 0,
        "meta_classification_type": "U",
        "meta_norad_cat_id": 66664,
        "meta_element_set_no": 999,
        "meta_rev_at_epoch": 231,
        "meta_bstar": 0.00026381,
        "meta_mean_motion_dot": 0.00014378,
        "meta_mean_motion_ddot": 0,
        "tle_line1": "1 66664U 25275A   25345.89616116  .00014378  00000+0  26381-3 0  9991",
        "tle_line2": "2 66664  51.6307 146.6565 0003298 237.1442 122.9229 15.49521399  2311"
      },
      "geometry": {
        "type": "Point",
        "coordinates": [
          133.56699135429747,
          -13.0105325902729
        ]
      }
    },
    {
      "type": "Feature",
      "properties": {
        "norad_id": 66791,
        "name": "STARLINK-35867",
        "group": "last-30-days",
        "lat": -38.92984122158501,
        "lon": -165.9254016504629,
        "alt_km": 307.6385482997184,
        "timestamp": "2025-12-12T09:49:07.482463+00:00",
        "meta_object_name": "STARLINK-35867",
        "meta_object_id": "2025-278A",
        "meta_epoch": "2025-12-12T02:33:24.300000",
        "meta_mean_motion": 15.88846618,
        "meta_eccentricity": 0.0002208,
        "meta_inclination": 42.9977,
        "meta_ra_of_asc_node": 256.0517,
        "meta_arg_of_pericenter": 290.2999,
        "meta_mean_anomaly": 69.7638,
        "meta_ephemeris_type": 0,
        "meta_classification_type": "U",
        "meta_norad_cat_id": 66791,
        "meta_element_set_no": 999,
        "meta_rev_at_epoch": 173,
        "meta_bstar": -0.00089052,
        "meta_mean_motion_dot": -0.00254517,
        "meta_mean_motion_ddot": 0,
        "tle_line1": "1 66791U 25278A   25346.10653125 -.00254517  00000+0 -89052-3 0  9998",
        "tle_line2": "2 66791  42.9977 256.0517 0002208 290.2999  69.7638 15.88846618  1732"
      },
      "geometry": {
        "type": "Point",
        "coordinates": [
          -165.9254016504629,
          -38.92984122158501
        ]
      }
    },
    {
      "type": "Feature",
      "properties": {
        "norad_id": 66792,
        "name": "STARLINK-35990",
        "group": "last-30-days",
        "lat": -38.36477153310506,
        "lon": -163.99282684781588,
        "alt_km": 307.6240664596071,
        "timestamp": "2025-12-12T09:49:07.482473+00:00",
        "meta_object_name": "STARLINK-35990",
        "meta_object_id": "2025-278B",
        "meta_epoch": "2025-12-12T02:33:00.196128",
        "meta_mean_motion": 15.88872737,
        "meta_eccentricity": 0.000215,
        "meta_inclination": 42.9974,
        "meta_ra_of_asc_node": 256.0489,
        "meta_arg_of_pericenter": 295.8927,
        "meta_mean_anomaly": 64.1725,
        "meta_ephemeris_type": 0,
        "meta_classification_type": "U",
        "meta_norad_cat_id": 66792,
        "meta_element_set_no": 999,
        "meta_rev_at_epoch": 173,
        "meta_bstar": -0.00097725,
        "meta_mean_motion_dot": -0.00278861,
        "meta_mean_motion_ddot": 0,
        "tle_line1": "1 66792U 25278B   25346.10625227 -.00278861  00000+0 -97725-3 0  9995",
        "tle_line2": "2 66792  42.9974 256.0489 0002150 295.8927  64.1725 15.88872737  1733"
      },
      "geometry": {
        "type": "Point",
        "coordinates": [
          -163.99282684781588,
          -38.36477153310506
        ]
      }
    },
    {
      "type": "Feature",
      "properties": {
        "norad_id": 66793,
        "name": "STARLINK-36051",
        "group": "last-30-days",
        "lat": -36.34571106258393,
        "lon": -157.99684880340186,
        "alt_km": 307.493390114244,
        "timestamp": "2025-12-12T09:49:07.482485+00:00",
        "meta_object_name": "STARLINK-36051",
        "meta_object_id": "2025-278C",
        "meta_epoch": "2025-12-12T02:31:42.596832",
        "meta_mean_motion": 15.88923268,
        "meta_eccentricity": 0.0002077,
        "meta_inclination": 42.9976,
        "meta_ra_of_asc_node": 256.042,
        "meta_arg_of_pericenter": 291.612,
        "meta_mean_anomaly": 68.4533,
        "meta_ephemeris_type": 0,
        "meta_classification_type": "U",
        "meta_norad_cat_id": 66793,
        "meta_element_set_no": 999,
        "meta_rev_at_epoch": 173,
        "meta_bstar": -0.0010906,
        "meta_mean_motion_dot": -0.00310823,
        "meta_mean_motion_ddot": 0,
        "tle_line1": "1 66793U 25278C   25346.10535413 -.00310823  00000+0 -10906-2 0  9993",
        "tle_line2": "2 66793  42.9976 256.0420 0002077 291.6120  68.4533 15.88923268  1738"
      },
      "geometry": {
        "type": "Point",
        "coordinates": [
          -157.99684880340186,
          -36.34571106258393
        ]
      }
    },
    {
      "type": "Feature",
      "properties": {
        "norad_id": 66794,
        "name": "STARLINK-36062",
        "group": "last-30-days",
        "lat": -37.24298674504412,
        "lon": -160.5127616313422,
        "alt_km": 307.46717545973024,
        "timestamp": "2025-12-12T09:49:07.482496+00:00",
        "meta_object_name": "STARLINK-36062",
        "meta_object_id": "2025-278D",
        "meta_epoch": "2025-12-12T02:32:15.830592",
        "meta_mean_motion": 15.88905117,
        "meta_eccentricity": 0.0002181,
        "meta_inclination": 42.997,
        "meta_ra_of_asc_node": 256.0455,
        "meta_arg_of_pericenter": 288.6802,
        "meta_mean_anomaly": 71.3835,
        "meta_ephemeris_type": 0,
        "meta_classification_type": "U",
        "meta_norad_cat_id": 66794,
        "meta_element_set_no": 999,
        "meta_rev_at_epoch": 173,
        "meta_bstar": -0.00097978,
        "meta_mean_motion_dot": -0.00280004,
        "meta_mean_motion_ddot": 0,
        "tle_line1": "1 66794U 25278D   25346.10573878 -.00280004  00000+0 -97978-3 0  9993",
        "tle_line2": "2 66794  42.9970 256.0455 0002181 288.6802  71.3835 15.88905117  1731"
      },
      "geometry": {
        "type": "Point",
        "coordinates": [
          -160.5127616313422,
          -37.24298674504412
        ]
      }
    }
  ]
}